NORAD_CAT_ID,OBJECT_NAME,OBJECT_TYPE,EPOCH,MEAN_MOTION,ECCENTRICITY,INCLINATION,RA_OF_ASC_NODE,ARG_OF_PERICENTER,MEAN_ANOMALY,BSTAR,MEAN_MOTION_DOT,MEAN_MOTION_DDOT,TLE_LINE0,TLE_LINE1,TLE_LINE2,SEMIMAJOR_AXIS,PERIOD,APOGEE,PERIGEE,DECAYED
52312.0,STARLINK-3752,PAYLOAD,2023-06-13 03:57:22,15.08832052,9.92e-05,53.2179,260.6065,99.1295,260.981,1.5382e-05,-4.3e-07,0.0,0 STARLINK-3752,1 52312U 22041BD  23164.16484291 -.00000043  00000-0  15382-4 0  9994,2 52312  53.2179 260.6065 0000992  99.1295 260.9810 15.08832052 64822,6917.905,95.438,540.456,539.083,0.0
52312.0,STARLINK-3752,PAYLOAD,2023-06-13 05:32:45,15.08831161,0.0001015,53.218,260.3078,94.9591,265.1517,6.5763e-06,-1.83e-06,0.0,0 STARLINK-3752,1 52312U 22041BD  23164.23108315 -.00000183  00000-0  65763-5 0  9996,2 52312  53.2180 260.3078 0001015  94.9591 265.1517 15.08831161 64836,6917.907,95.438,540.475,539.07,0.0
52312.0,STARLINK-3752,PAYLOAD,2023-06-13 23:01:59,15.08838344,9.48e-05,53.2177,257.0372,96.0391,264.0709,3.8906e-05,3.31e-06,0.0,0 STARLINK-3752,1 52312U 22041BD  23164.95971990  .00000331  00000-0  38906-4 0  9994,2 52312  53.2177 257.0372 0000948  96.0391 264.0709 15.08838344 64940,6917.885,95.438,540.406,539.095,0.0
52312.0,STARLINK-3752,PAYLOAD,2023-06-14 14:55:51,15.08840684,0.0001075,53.2179,254.0636,98.5472,261.5642,6.8306e-07,-2.77e-06,0.0,0 STARLINK-3752,1 52312U 22041BD  23165.62212092 -.00000277  00000-0  68306-6 0  9999,2 52312  53.2179 254.0636 0001075  98.5472 261.5642 15.08840684 65041,6917.878,95.438,540.487,539.0,0.0
52312.0,STARLINK-3752,PAYLOAD,2023-06-15 10:00:29,15.0883119,0.0001041,53.2177,250.4948,89.2625,270.8486,6.4191e-05,7.34e-06,0.0,0 STARLINK-3752,1 52312U 22041BD  23166.41700765  .00000734  00000-0  64191-4 0  9999,2 52312  53.2177 250.4948 0001041  89.2625 270.8486 15.08831190 65169,6917.907,95.438,540.492,539.052,0.0
52312.0,STARLINK-3752,PAYLOAD,2023-06-15 13:11:15,15.08836855,0.0001042,53.2174,249.8996,85.4181,274.693,6.0379e-05,6.73e-06,0.0,0 STARLINK-3752,1 52312U 22041BD  23166.54948476  .00000673  00000-0  60379-4 0  9992,2 52312  53.2174 249.8996 0001042  85.4181 274.6930 15.08836855 65188,6917.89,95.438,540.476,539.034,0.0
52312.0,STARLINK-3752,PAYLOAD,2023-06-15 14:46:38,15.08837236,0.0001042,53.2172,249.602,84.2733,275.8378,6.3009e-05,7.15e-06,0.0,0 STARLINK-3752,1 52312U 22041BD  23166.61572459  .00000715  00000-0  63009-4 0  9994,2 52312  53.2172 249.6020 0001042  84.2733 275.8378 15.08837236 65196,6917.889,95.438,540.475,539.033,0.0
52312.0,STARLINK-3752,PAYLOAD,2023-06-16 01:54:20,15.08839654,0.0001112,53.2173,247.5205,84.6889,275.423,5.3343e-05,5.61e-06,0.0,0 STARLINK-3752,1 52312U 22041BD  23167.07940373  .00000561  00000-0  53343-4 0  9998,2 52312  53.2173 247.5205 0001112  84.6889 275.4230 15.08839654 65260,6917.881,95.438,540.516,538.977,0.0
52312.0,STARLINK-3752,PAYLOAD,2023-06-16 11:26:38,15.08849392,0.0001026,53.2171,245.7364,87.0952,273.0158,0.00013153,1.807e-05,0.0,0 STARLINK-3752,1 52312U 22041BD  23167.47683455  .00001807  00000-0  13153-3 0  9995,2 52312  53.2171 245.7364 0001026  87.0952 273.0158 15.08849392 65326,6917.852,95.437,540.426,539.007,0.0
52312.0,STARLINK-3752,PAYLOAD,2023-06-16 13:02:01,15.08850628,0.0001072,53.217,245.439,86.0071,274.1044,0.00017454,2.492e-05,0.0,0 STARLINK-3752,1 52312U 22041BD  23167.54307258  .00002492  00000-0  17454-3 0  9996,2 52312  53.2170 245.4390 0001072  86.0071 274.1044 15.08850628 65334,6917.848,95.437,540.454,538.971,0.0
52312.0,STARLINK-3752,PAYLOAD,2023-06-17 00:09:44,15.08841282,0.0001088,53.2171,243.3576,84.7967,275.3149,7.8119e-05,9.56e-06,0.0,0 STARLINK-3752,1 52312U 22041BD  23168.00675961  .00000956  00000-0  78119-4 0  9996,2 52312  53.2171 243.3576 0001088  84.7967 275.3149 15.08841282 65407,6917.876,95.437,540.494,538.989,0.0
52312.0,STARLINK-3752,PAYLOAD,2023-06-17 04:55:54,15.08833449,0.0001045,53.217,242.4657,93.326,266.7852,3.429e-05,2.58e-06,0.0,0 STARLINK-3752,1 52312U 22041BD  23168.20548634  .00000258  00000-0  34290-4 0  9991,2 52312  53.2170 242.4657 0001045  93.3260 266.7852 15.08833449 65435,6917.9,95.438,540.488,539.042,0.0
52312.0,STARLINK-3752,PAYLOAD,2023-06-17 11:17:26,15.08833245,0.0001127,53.2165,241.2772,85.4028,274.7093,1.5421e-05,-4.2e-07,0.0,0 STARLINK-3752,1 52312U 22041BD  23168.47044784 -.00000042  00000-0  15421-4 0  9994,2 52312  53.2165 241.2772 0001127  85.4028 274.7093 15.08833245 65473,6917.901,95.438,540.546,538.986,0.0
52312.0,STARLINK-3752,PAYLOAD,2023-06-18 04:46:40,15.08841237,0.0001051,53.2169,238.0045,95.2567,264.8546,1.5967e-05,-3.4e-07,0.0,0 STARLINK-3752,1 52312U 22041BD  23169.19908347 -.00000034  00000-0  15967-4 0  9994,2 52312  53.2169 238.0045 0001051  95.2567 264.8546 15.08841237 65582,6917.877,95.437,540.469,539.015,0.0
52312.0,STARLINK-3752,PAYLOAD,2023-06-18 11:08:13,15.08843014,0.0001015,53.217,236.8153,95.2426,264.8682,2.8874e-05,1.72e-06,0.0,0 STARLINK-3752,1 52312U 22041BD  23169.46404157  .00000172  00000-0  28874-4 0  9997,2 52312  53.2170 236.8153 0001015  95.2426 264.8682 15.08843014 65625,6917.871,95.437,540.438,539.034,0.0
52312.0,STARLINK-3752,PAYLOAD,2023-06-19 10:59:00,15.08835034,9.73e-05,53.2174,232.3563,89.2533,270.8571,0.00011456,1.536e-05,0.0,0 STARLINK-3752,1 52312U 22041BD  23170.45764486  .00001536  00000-0  11456-3 0  9994,2 52312  53.2174 232.3563 0000973  89.2533 270.8571 15.08835034 65772,6917.896,95.438,540.434,539.087,0.0
52312.0,STARLINK-3752,PAYLOAD,2023-06-19 20:31:19,15.08838239,9.07e-05,53.2182,230.5727,88.9546,271.155,2.8312e-05,1.63e-06,0.0,0 STARLINK-3752,1 52312U 22041BD  23170.85508586  .00000163  00000-0  28312-4 0  9990,2 52312  53.2182 230.5727 0000907  88.9546 271.1550 15.08838239 65838,6917.886,95.438,540.378,539.123,0.0
52312.0,STARLINK-3752,PAYLOAD,2023-06-20 10:49:47,15.08840127,0.0001067,53.2167,227.8943,89.2452,270.8662,4.3613e-05,4.06e-06,0.0,0 STARLINK-3752,1 52312U 22041BD  23171.45124544  .00000406  00000-0  43613-4 0  9996,2 52312  53.2167 227.8943 0001067  89.2452 270.8662 15.08840127 65927,6917.88,95.438,540.483,539.007,0.0
52312.0,STARLINK-3752,PAYLOAD,2023-06-21 10:40:34,15.08837288,0.0001063,53.2169,223.435,84.7943,275.3171,5.3566e-05,5.65e-06,0.0,0 STARLINK-3752,1 52312U 22041BD  23172.44484897  .00000565  00000-0  53566-4 0  9990,2 52312  53.2169 223.4350 0001063  84.7943 275.3171 15.08837288 66070,6917.889,95.438,540.489,539.018,0.0
52312.0,STARLINK-3752,PAYLOAD,2023-06-21 20:12:53,15.08837861,0.0001039,53.2162,221.6507,83.5916,276.5194,4.0015e-05,3.49e-06,0.0,0 STARLINK-3752,1 52312U 22041BD  23172.84228939  .00000349  00000-0  40015-4 0  9992,2 52312  53.2162 221.6507 0001039  83.5916 276.5194 15.08837861 66139,6917.887,95.438,540.471,539.033,0.0
52312.0,STARLINK-3752,PAYLOAD,2023-06-22 12:06:45,15.08841594,0.0001064,53.2167,218.677,86.9827,273.1287,5.2469e-05,5.47e-06,0.0,0 STARLINK-3752,1 52312U 22041BD  23173.50468788  .00000547  00000-0  52469-4 0  9990,2 52312  53.2167 218.6770 0001064  86.9827 273.1287 15.08841594 66233,6917.876,95.437,540.477,539.004,0.0
52312.0,STARLINK-3752,PAYLOAD,2023-06-23 19:54:27,15.08839751,0.0001078,53.2163,212.7287,88.6915,271.42,3.2499e-05,2.29e-06,0.0,0 STARLINK-3752,1 52312U 22041BD  23174.82948930  .00000229  00000-0  32499-4 0  9996,2 52312  53.2163 212.7287 0001078  88.6915 271.4200 15.08839751 66439,6917.881,95.438,540.492,539.0,0.0
52312.0,STARLINK-3752,PAYLOAD,2023-06-25 08:28:23,15.08794164,9.06e-05,53.2161,205.8895,94.0656,266.0439,-0.00035319,-5.897e-05,0.0,0 STARLINK-3752,1 52312U 22041BD  23176.35305285 -.00005897  00000-0 -35319-3 0  9997,2 52312  53.2161 205.8895 0000906  94.0656 266.0439 15.08794164 66664,6918.02,95.44,540.512,539.259,0.0
52312.0,STARLINK-3752,PAYLOAD,2023-06-25 10:03:44,15.0882455,8.42e-05,53.2162,205.5927,99.8537,260.255,-9.4007e-05,-1.783e-05,0.0,0 STARLINK-3752,1 52312U 22041BD  23176.41926786 -.00001783  00000-0 -94007-4 0  9999,2 52312  53.2162 205.5927 0000842  99.8537 260.2550 15.08824550 66672,6917.928,95.439,540.375,539.21,0.0
52312.0,STARLINK-3752,PAYLOAD,2023-06-26 01:57:36,15.08828537,7.56e-05,53.2163,202.6188,100.1821,259.9256,-3.6663e-06,-3.46e-06,0.0,0 STARLINK-3752,1 52312U 22041BD  23177.08166704 -.00000346  00000-0 -36663-5 0  9998,2 52312  53.2163 202.6188 0000756 100.1821 259.9256 15.08828537 66774,6917.915,95.438,540.303,539.257,0.0
52312.0,STARLINK-3752,PAYLOAD,2023-06-26 09:54:31,15.08833547,0.0001092,53.2166,201.1314,92.41,267.7017,2.6528e-05,1.34e-06,0.0,0 STARLINK-3752,1 52312U 22041BD  23177.41286581  .00000134  00000-0  26528-4 0  9992,2 52312  53.2166 201.1314 0001092  92.4100 267.7017 15.08833547 66824,6917.9,95.438,540.521,539.01,0.0
52312.0,STARLINK-3752,PAYLOAD,2023-06-27 09:45:18,15.08816277,8.81e-05,53.2165,196.6713,91.0446,269.0647,0.00040144,6.103e-05,0.0,0 STARLINK-3752,1 52312U 22041BD  23178.40646953  .00006103  00000-0  40144-3 0  9996,2 52312  53.2165 196.6713 0000881  91.0446 269.0647 15.08816277 66978,6917.953,95.439,540.427,539.208,0.0
52312.0,STARLINK-3752,PAYLOAD,2023-06-28 01:39:09,15.08844457,9.75e-05,53.2165,193.697,88.1115,271.9988,0.00010957,1.457e-05,0.0,0 STARLINK-3752,1 52312U 22041BD  23179.06886348  .00001457  00000-0  10957-3 0  9999,2 52312  53.2165 193.6970 0000975  88.1115 271.9988 15.08844457 67077,6917.867,95.437,540.406,539.057,0.0
52312.0,STARLINK-3752,PAYLOAD,2023-06-29 04:40:42,15.08838707,0.0001156,53.2165,188.6414,107.6853,252.4265,0.0001437,2e-05,0.0,0 STARLINK-3752,1 52312U 22041BD  23180.19494049  .00002000  00000-0  14370-3 0  9996,2 52312  53.2165 188.6414 0001156 107.6853 252.4265 15.08838707 67244,6917.884,95.438,540.549,538.95,0.0
52312.0,STARLINK-3752,PAYLOAD,2023-07-01 09:08:26,15.08841109,0.0001088,53.2169,178.8298,86.1151,273.9965,6.6039e-06,-1.83e-06,0.0,0 STARLINK-3752,1 52312U 22041BD  23182.38085850 -.00000183  00000-0  66039-5 0  9997,2 52312  53.2169 178.8298 0001088  86.1151 273.9965 15.08841109 67576,6917.877,95.437,540.495,538.989,0.0
